[{"OBJECT_NAME":"UNKNOWN","OBJECT_ID":"","EPOCH":"2026-03-02T14:10:10.176384","MEAN_MOTION":13.74520605,"ECCENTRICITY":0.0031038,"INCLINATION":82.9487,"RA_OF_ASC_NODE":175.0298,"ARG_OF_PERICENTER":139.856,"MEAN_ANOMALY":220.4897,"EPHEMERIS_TYPE":0,"CLASSIFICATION_TYPE":"U","NORAD_CAT_ID":87730,"ELEMENT_SET_NO":999,"REV_AT_EPOCH":59630,"BSTAR":8.34e-5,"MEAN_MOTION_DOT":9.5e-7,"MEAN_MOTION_DDOT":0},{"OBJECT_NAME":"UNKNOWN","OBJECT_ID":"","EPOCH":"2026-03-02T02:20:14.646336","MEAN_MOTION":13.72355923,"ECCENTRICITY":0.0133008,"INCLINATION":99.367,"RA_OF_ASC_NODE":296.1418,"ARG_OF_PERICENTER":343.1811,"MEAN_ANOMALY":16.4948,"EPHEMERIS_TYPE":0,"CLASSIFICATION_TYPE":"U","NORAD_CAT_ID":87737,"ELEMENT_SET_NO":999,"REV_AT_EPOCH":61474,"BSTAR":9.5584e-5,"MEAN_MOTION_DOT":4.9e-7,"MEAN_MOTION_DDOT":0},{"OBJECT_NAME":"UNKNOWN","OBJECT_ID":"","EPOCH":"2026-03-02T09:36:40.895712","MEAN_MOTION":14.3637878,"ECCENTRICITY":0.0359466,"INCLINATION":65.6728,"RA_OF_ASC_NODE":302.9445,"ARG_OF_PERICENTER":34.9962,"MEAN_ANOMALY":142.3115,"EPHEMERIS_TYPE":0,"CLASSIFICATION_TYPE":"U","NORAD_CAT_ID":87764,"ELEMENT_SET_NO":999,"REV_AT_EPOCH":63055,"BSTAR":0.0016921,"MEAN_MOTION_DOT":0.00010375,"MEAN_MOTION_DDOT":0},{"OBJECT_NAME":"UNKNOWN","OBJECT_ID":"","EPOCH":"2026-03-02T07:13:53.431968","MEAN_MOTION":13.19540425,"ECCENTRICITY":0.0119574,"INCLINATION":100.7431,"RA_OF_ASC_NODE":264.1946,"ARG_OF_PERICENTER":181.8872,"MEAN_ANOMALY":178.1805,"EPHEMERIS_TYPE":0,"CLASSIFICATION_TYPE":"U","NORAD_CAT_ID":87771,"ELEMENT_SET_NO":999,"REV_AT_EPOCH":54558,"BSTAR":0.00035585,"MEAN_MOTION_DOT":1.01e-6,"MEAN_MOTION_DDOT":0},{"OBJECT_NAME":"UNKNOWN","OBJECT_ID":"","EPOCH":"2026-03-02T14:36:24.980544","MEAN_MOTION":13.00880763,"ECCENTRICITY":0.0053069,"INCLINATION":102.3651,"RA_OF_ASC_NODE":308.831,"ARG_OF_PERICENTER":42.8179,"MEAN_ANOMALY":317.7033,"EPHEMERIS_TYPE":0,"CLASSIFICATION_TYPE":"U","NORAD_CAT_ID":87782,"ELEMENT_SET_NO":999,"REV_AT_EPOCH":57837,"BSTAR":0.012632,"MEAN_MOTION_DOT":3.823e-5,"MEAN_MOTION_DDOT":0},{"OBJECT_NAME":"UNKNOWN","OBJECT_ID":"","EPOCH":"2026-03-02T13:05:59.746560","MEAN_MOTION":13.16934207,"ECCENTRICITY":0.0247304,"INCLINATION":99.6571,"RA_OF_ASC_NODE":173.9844,"ARG_OF_PERICENTER":178.1918,"MEAN_ANOMALY":182.0149,"EPHEMERIS_TYPE":0,"CLASSIFICATION_TYPE":"U","NORAD_CAT_ID":87843,"ELEMENT_SET_NO":999,"REV_AT_EPOCH":57466,"BSTAR":0.0046761,"MEAN_MOTION_DOT":2.064e-5,"MEAN_MOTION_DDOT":0},{"OBJECT_NAME":"UNKNOWN","OBJECT_ID":"","EPOCH":"2026-03-03T02:22:10.100928","MEAN_MOTION":12.89242529,"ECCENTRICITY":0.0579496,"INCLINATION":98.8682,"RA_OF_ASC_NODE":8.8774,"ARG_OF_PERICENTER":68.5257,"MEAN_ANOMALY":297.6612,"EPHEMERIS_TYPE":0,"CLASSIFICATION_TYPE":"U","NORAD_CAT_ID":87845,"ELEMENT_SET_NO":999,"REV_AT_EPOCH":57556,"BSTAR":0.0055645,"MEAN_MOTION_DOT":3.001e-5,"MEAN_MOTION_DDOT":0},{"OBJECT_NAME":"UNKNOWN","OBJECT_ID":"","EPOCH":"2026-03-01T13:56:10.251744","MEAN_MOTION":14.4143982,"ECCENTRICITY":0.003436,"INCLINATION":99.1593,"RA_OF_ASC_NODE":190.6549,"ARG_OF_PERICENTER":36.2979,"MEAN_ANOMALY":324.0529,"EPHEMERIS_TYPE":0,"CLASSIFICATION_TYPE":"U","NORAD_CAT_ID":87878,"ELEMENT_SET_NO":999,"REV_AT_EPOCH":62265,"BSTAR":0.0011929,"MEAN_MOTION_DOT":3.848e-5,"MEAN_MOTION_DDOT":0},{"OBJECT_NAME":"UNKNOWN","OBJECT_ID":"","EPOCH":"2026-02-28T13:39:59.999616","MEAN_MOTION":14.06044062,"ECCENTRICITY":0.0153707,"INCLINATION":98.7315,"RA_OF_ASC_NODE":165.687,"ARG_OF_PERICENTER":208.8803,"MEAN_ANOMALY":150.3794,"EPHEMERIS_TYPE":0,"CLASSIFICATION_TYPE":"U","NORAD_CAT_ID":87884,"ELEMENT_SET_NO":999,"REV_AT_EPOCH":62930,"BSTAR":0.00035614,"MEAN_MOTION_DOT":6.07e-6,"MEAN_MOTION_DDOT":0},{"OBJECT_NAME":"UNKNOWN","OBJECT_ID":"","EPOCH":"2026-02-27T21:39:39.353184","MEAN_MOTION":12.35692323,"ECCENTRICITY":0.0895898,"INCLINATION":28.6287,"RA_OF_ASC_NODE":295.8565,"ARG_OF_PERICENTER":205.1452,"MEAN_ANOMALY":150.2727,"EPHEMERIS_TYPE":0,"CLASSIFICATION_TYPE":"U","NORAD_CAT_ID":87991,"ELEMENT_SET_NO":999,"REV_AT_EPOCH":53254,"BSTAR":0.0077235,"MEAN_MOTION_DOT":4.024e-5,"MEAN_MOTION_DDOT":0},{"OBJECT_NAME":"UNKNOWN","OBJECT_ID":"","EPOCH":"2026-03-02T22:50:11.074848","MEAN_MOTION":14.46220259,"ECCENTRICITY":0.0190723,"INCLINATION":97.8416,"RA_OF_ASC_NODE":250.1216,"ARG_OF_PERICENTER":144.4017,"MEAN_ANOMALY":217.0075,"EPHEMERIS_TYPE":0,"CLASSIFICATION_TYPE":"U","NORAD_CAT_ID":89005,"ELEMENT_SET_NO":999,"REV_AT_EPOCH":54568,"BSTAR":0.0011138,"MEAN_MOTION_DOT":4.955e-5,"MEAN_MOTION_DDOT":0},{"OBJECT_NAME":"UNKNOWN","OBJECT_ID":"","EPOCH":"2026-02-04T23:46:31.808352","MEAN_MOTION":14.95225167,"ECCENTRICITY":0.0022937,"INCLINATION":98.0469,"RA_OF_ASC_NODE":301.635,"ARG_OF_PERICENTER":142.0484,"MEAN_ANOMALY":218.2357,"EPHEMERIS_TYPE":0,"CLASSIFICATION_TYPE":"U","NORAD_CAT_ID":89029,"ELEMENT_SET_NO":999,"REV_AT_EPOCH":65918,"BSTAR":0.00075403,"MEAN_MOTION_DOT":8.279e-5,"MEAN_MOTION_DDOT":0},{"OBJECT_NAME":"UNKNOWN","OBJECT_ID":"","EPOCH":"2026-03-02T01:01:53.058144","MEAN_MOTION":13.04036176,"ECCENTRICITY":0.0146743,"INCLINATION":100.4715,"RA_OF_ASC_NODE":0.253,"ARG_OF_PERICENTER":291.6131,"MEAN_ANOMALY":66.9397,"EPHEMERIS_TYPE":0,"CLASSIFICATION_TYPE":"U","NORAD_CAT_ID":89101,"ELEMENT_SET_NO":999,"REV_AT_EPOCH":56518,"BSTAR":0.0014851,"MEAN_MOTION_DOT":4.54e-6,"MEAN_MOTION_DDOT":0},{"OBJECT_NAME":"UNKNOWN","OBJECT_ID":"","EPOCH":"2026-02-26T17:20:11.030496","MEAN_MOTION":8.87879281,"ECCENTRICITY":0.293195,"INCLINATION":63.438,"RA_OF_ASC_NODE":322.0666,"ARG_OF_PERICENTER":319.6085,"MEAN_ANOMALY":21.9735,"EPHEMERIS_TYPE":0,"CLASSIFICATION_TYPE":"U","NORAD_CAT_ID":89132,"ELEMENT_SET_NO":999,"REV_AT_EPOCH":33185,"BSTAR":0.0056561,"MEAN_MOTION_DOT":4.44e-5,"MEAN_MOTION_DDOT":0},{"OBJECT_NAME":"UNKNOWN","OBJECT_ID":"","EPOCH":"2026-03-03T06:02:54.545280","MEAN_MOTION":14.63940719,"ECCENTRICITY":0.0091956,"INCLINATION":98.2532,"RA_OF_ASC_NODE":356.0413,"ARG_OF_PERICENTER":162.2933,"MEAN_ANOMALY":198.151,"EPHEMERIS_TYPE":0,"CLASSIFICATION_TYPE":"U","NORAD_CAT_ID":89146,"ELEMENT_SET_NO":999,"REV_AT_EPOCH":64065,"BSTAR":0.00072691,"MEAN_MOTION_DOT":3.994e-5,"MEAN_MOTION_DDOT":0},{"OBJECT_NAME":"UNKNOWN","OBJECT_ID":"","EPOCH":"2026-03-02T00:40:49.660320","MEAN_MOTION":15.68113445,"ECCENTRICITY":0.0023231,"INCLINATION":97.6398,"RA_OF_ASC_NODE":86.7404,"ARG_OF_PERICENTER":132.3369,"MEAN_ANOMALY":227.9864,"EPHEMERIS_TYPE":0,"CLASSIFICATION_TYPE":"U","NORAD_CAT_ID":89161,"ELEMENT_SET_NO":999,"REV_AT_EPOCH":56087,"BSTAR":0.0031998,"MEAN_MOTION_DOT":0.00375843,"MEAN_MOTION_DDOT":0},{"OBJECT_NAME":"UNKNOWN","OBJECT_ID":"","EPOCH":"2026-03-01T22:56:09.572640","MEAN_MOTION":14.49051122,"ECCENTRICITY":0.0282559,"INCLINATION":82.0646,"RA_OF_ASC_NODE":147.4672,"ARG_OF_PERICENTER":37.2688,"MEAN_ANOMALY":324.7747,"EPHEMERIS_TYPE":0,"CLASSIFICATION_TYPE":"U","NORAD_CAT_ID":89172,"ELEMENT_SET_NO":999,"REV_AT_EPOCH":61335,"BSTAR":0.0009656,"MEAN_MOTION_DOT":6.145e-5,"MEAN_MOTION_DDOT":0}]
